{
  "type": "FeatureCollection",
  "crs": {
    "type": "name",
    "properties": {
      "name": "urn:ogc:def:crs:OGC:1.3:CRS84"
    }
  },
  "features": [
    {
      "type": "Feature",
      "geometry": {
        "type": "Polygon",
        "coordinates": [
          [
            [
              38.5,
              7.25
            ],
            [
              38.75,
              7.25
            ],
            [
              38.75,
              7.5
            ],
            [
              39.0,
              7.5
            ],
            [
              39.25,
              7.5
            ],
            [
              39.25,
              7.75
            ],
            [
              39.0,
              7.75
            ],
            [
              39.0,
              8.0
            ],
            [
              38.75,
              8.0
            ],
            [
              38.75,
              8.25
            ],
            [
              38.5,
              8.25
            ],
            [
              38.25,
              8.25
            ],
            [
              38.25,
              8.5
            ],
            [
              38.0,
              8.5
            ],
            [
              38.0,
              8.75
            ],
            [
              38.0,
              9.0
            ],
            [
              38.0,
              9.25
            ],
            [
              38.0,
              9.5
            ],
            [
              38.0,
              9.75
            ],
            [
              38.0,
              10.0
            ],
            [
              37.75,
              10.0
            ],
            [
              37.75,
              10.25
            ],
            [
              37.5,
              10.25
            ],
            [
              37.5,
              10.5
            ],
            [
              37.75,
              10.5
            ],
            [
              37.75,
              10.75
            ],
            [
              37.5,
              10.75
            ],
            [
              37.5,
              11.0
            ],
            [
              37.5,
              11.25
            ],
            [
              37.5,
              11.5
            ],
            [
              37.5,
              11.75
            ],
            [
              37.75,
              11.75
            ],
            [
              38.0,
              11.75
            ],
            [
              38.0,
              12.0
            ],
            [
              38.0,
              12.25
            ],
            [
              38.0,
              12.5
            ],
            [
              37.75,
              12.5
            ],
            [
              37.5,
              12.5
            ],
            [
              37.5,
              12.75
            ],
            [
              37.5,
              13.0
            ],
            [
              37.5,
              13.25
            ],
            [
              37.75,
              13.25
            ],
            [
              38.0,
              13.25
            ],
            [
              38.0,
              13.5
            ],
            [
              38.25,
              13.5
            ],
            [
              38.25,
              13.75
            ],
            [
              38.25,
              14.0
            ],
            [
              38.25,
              14.25
            ],
            [
              38.25,
              14.5
            ],
            [
              38.5,
              14.5
            ],
            [
              38.75,
              14.5
            ],
            [
              39.0,
              14.5
            ],
            [
              39.25,
              14.5
            ],
            [
              39.5,
              14.5
            ],
            [
              39.5,
              14.75
            ],
            [
              39.75,
              14.75
            ],
            [
              39.75,
              14.5
            ],
            [
              40.0,
              14.5
            ],
            [
              40.0,
              14.25
            ],
            [
              40.0,
              14.0
            ],
            [
              40.25,
              14.0
            ],
            [
              40.25,
              13.75
            ],
            [
              40.5,
              13.75
            ],
            [
              40.5,
              13.5
            ],
            [
              40.5,
              13.25
            ],
            [
              40.5,
              13.0
            ],
            [
              40.75,
              13.0
            ],
            [
              40.75,
              12.75
            ],
            [
              40.75,
              12.5
            ],
            [
              41.0,
              12.5
            ],
            [
              41.0,
              12.25
            ],
            [
              40.75,
              12.25
            ],
            [
              40.75,
              12.0
            ],
            [
              40.75,
              11.75
            ],
            [
              40.75,
              11.5
            ],
            [
              40.75,
              11.25
            ],
            [
              41.0,
              11.25
            ],
            [
              41.0,
              11.0
            ],
            [
              41.25,
              11.0
            ],
            [
              41.5,
              11.0
            ],
            [
              41.5,
              10.75
            ],
            [
              41.5,
              10.5
            ],
            [
              41.5,
              10.25
            ],
            [
              41.5,
              10.0
            ],
            [
              41.75,
              10.0
            ],
            [
              42.0,
              10.0
            ],
            [
              42.25,
              10.0
            ],
            [
              42.25,
              10.25
            ],
            [
              42.25,
              10.5
            ],
            [
              42.5,
              10.5
            ],
            [
              42.75,
              10.5
            ],
            [
              42.75,
              10.25
            ],
            [
              43.0,
              10.25
            ],
            [
              43.0,
              10.0
            ],
            [
              43.25,
              10.0
            ],
            [
              43.25,
              9.75
            ],
            [
              43.25,
              9.5
            ],
            [
              43.5,
              9.5
            ],
            [
              43.5,
              9.25
            ],
            [
              43.75,
              9.25
            ],
            [
              44.0,
              9.25
            ],
            [
              44.0,
              9.0
            ],
            [
              43.75,
              9.0
            ],
            [
              43.75,
              8.75
            ],
            [
              43.5,
              8.75
            ],
            [
              43.25,
              8.75
            ],
            [
              43.0,
              8.75
            ],
            [
              42.75,
              8.75
            ],
            [
              42.5,
              8.75
            ],
            [
              42.25,
              8.75
            ],
            [
              42.25,
              8.5
            ],
            [
              42.0,
              8.5
            ],
            [
              41.75,
              8.5
            ],
            [
              41.5,
              8.5
            ],
            [
              41.5,
              8.25
            ],
            [
              41.25,
              8.25
            ],
            [
              41.25,
              8.0
            ],
            [
              41.0,
              8.0
            ],
            [
              41.0,
              7.75
            ],
            [
              40.75,
              7.75
            ],
            [
              40.75,
              7.5
            ],
            [
              40.5,
              7.5
            ],
            [
              40.5,
              7.25
            ],
            [
              40.25,
              7.25
            ],
            [
              40.25,
              7.0
            ],
            [
              40.0,
              7.0
            ],
            [
              39.75,
              7.0
            ],
            [
              39.75,
              6.75
            ],
            [
              39.5,
              6.75
            ],
            [
              39.25,
              6.75
            ],
            [
              39.25,
              6.5
            ],
            [
              39.0,
              6.5
            ],
            [
              38.75,
              6.5
            ],
            [
              38.75,
              6.25
            ],
            [
              38.5,
              6.25
            ],
            [
              38.5,
              6.5
            ],
            [
              38.25,
              6.5
            ],
            [
              38.0,
              6.5
            ],
            [
              38.0,
              6.75
            ],
            [
              38.0,
              7.0
            ],
            [
              38.0,
              7.25
            ],
            [
              38.0,
              7.5
            ],
            [
              38.25,
              7.5
            ],
            [
              38.25,
              7.25
            ],
            [
              38.5,
              7.25
            ]
          ]
        ]
      },
      "properties": {
        "mask_name": "Highlands Type-1 Belg Early Rains Domain",
        "target_reg": "Regime 2 Highlands",
        "window": "Feb-May",
        "pixel_cnt": 416,
        "land_pct": 28.0,
        "authority": "Dunning (2016) / EMI Climatology"
      }
    }
  ]
}