{
  "type": "FeatureCollection",
  "crs": {
    "type": "name",
    "properties": {
      "name": "urn:ogc:def:crs:OGC:1.3:CRS84"
    }
  },
  "features": [
    {
      "type": "Feature",
      "geometry": {
        "type": "MultiPolygon",
        "coordinates": [
          [
            [
              [
                34.5,
                6.75
              ],
              [
                34.5,
                7.0
              ],
              [
                34.25,
                7.0
              ],
              [
                34.25,
                7.25
              ],
              [
                34.0,
                7.25
              ],
              [
                34.0,
                7.5
              ],
              [
                33.75,
                7.5
              ],
              [
                33.75,
                7.75
              ],
              [
                33.5,
                7.75
              ],
              [
                33.25,
                7.75
              ],
              [
                33.0,
                7.75
              ],
              [
                33.0,
                8.0
              ],
              [
                33.25,
                8.0
              ],
              [
                33.25,
                8.25
              ],
              [
                33.25,
                8.5
              ],
              [
                33.5,
                8.5
              ],
              [
                33.75,
                8.5
              ],
              [
                34.0,
                8.5
              ],
              [
                34.0,
                8.75
              ],
              [
                34.25,
                8.75
              ],
              [
                34.25,
                9.0
              ],
              [
                34.0,
                9.0
              ],
              [
                34.0,
                9.25
              ],
              [
                34.0,
                9.5
              ],
              [
                34.0,
                9.75
              ],
              [
                34.25,
                9.75
              ],
              [
                34.25,
                10.0
              ],
              [
                34.25,
                10.25
              ],
              [
                34.25,
                10.5
              ],
              [
                34.25,
                10.75
              ],
              [
                34.5,
                10.75
              ],
              [
                34.75,
                10.75
              ],
              [
                35.0,
                10.75
              ],
              [
                35.0,
                11.0
              ],
              [
                35.0,
                11.25
              ],
              [
                35.0,
                11.5
              ],
              [
                35.0,
                11.75
              ],
              [
                35.25,
                11.75
              ],
              [
                35.25,
                12.0
              ],
              [
                35.25,
                12.25
              ],
              [
                35.5,
                12.25
              ],
              [
                35.5,
                12.5
              ],
              [
                35.75,
                12.5
              ],
              [
                35.75,
                12.75
              ],
              [
                36.0,
                12.75
              ],
              [
                36.25,
                12.75
              ],
              [
                36.25,
                13.0
              ],
              [
                36.25,
                13.25
              ],
              [
                36.25,
                13.5
              ],
              [
                36.5,
                13.5
              ],
              [
                36.5,
                13.75
              ],
              [
                36.5,
                14.0
              ],
              [
                36.5,
                14.25
              ],
              [
                36.75,
                14.25
              ],
              [
                37.0,
                14.25
              ],
              [
                37.0,
                14.5
              ],
              [
                37.25,
                14.5
              ],
              [
                37.5,
                14.5
              ],
              [
                37.75,
                14.5
              ],
              [
                37.75,
                14.75
              ],
              [
                38.0,
                14.75
              ],
              [
                38.25,
                14.75
              ],
              [
                38.25,
                14.5
              ],
              [
                38.25,
                14.25
              ],
              [
                38.25,
                14.0
              ],
              [
                38.25,
                13.75
              ],
              [
                38.25,
                13.5
              ],
              [
                38.0,
                13.5
              ],
              [
                38.0,
                13.25
              ],
              [
                37.75,
                13.25
              ],
              [
                37.5,
                13.25
              ],
              [
                37.5,
                13.0
              ],
              [
                37.5,
                12.75
              ],
              [
                37.5,
                12.5
              ],
              [
                37.75,
                12.5
              ],
              [
                38.0,
                12.5
              ],
              [
                38.0,
                12.25
              ],
              [
                38.0,
                12.0
              ],
              [
                38.0,
                11.75
              ],
              [
                37.75,
                11.75
              ],
              [
                37.5,
                11.75
              ],
              [
                37.5,
                11.5
              ],
              [
                37.5,
                11.25
              ],
              [
                37.5,
                11.0
              ],
              [
                37.5,
                10.75
              ],
              [
                37.75,
                10.75
              ],
              [
                37.75,
                10.5
              ],
              [
                37.5,
                10.5
              ],
              [
                37.5,
                10.25
              ],
              [
                37.75,
                10.25
              ],
              [
                37.75,
                10.0
              ],
              [
                38.0,
                10.0
              ],
              [
                38.0,
                9.75
              ],
              [
                38.0,
                9.5
              ],
              [
                38.0,
                9.25
              ],
              [
                38.0,
                9.0
              ],
              [
                38.0,
                8.75
              ],
              [
                38.0,
                8.5
              ],
              [
                38.25,
                8.5
              ],
              [
                38.25,
                8.25
              ],
              [
                38.5,
                8.25
              ],
              [
                38.75,
                8.25
              ],
              [
                38.75,
                8.0
              ],
              [
                39.0,
                8.0
              ],
              [
                39.0,
                7.75
              ],
              [
                39.25,
                7.75
              ],
              [
                39.25,
                7.5
              ],
              [
                39.0,
                7.5
              ],
              [
                38.75,
                7.5
              ],
              [
                38.75,
                7.25
              ],
              [
                38.5,
                7.25
              ],
              [
                38.25,
                7.25
              ],
              [
                38.25,
                7.5
              ],
              [
                38.0,
                7.5
              ],
              [
                38.0,
                7.25
              ],
              [
                38.0,
                7.0
              ],
              [
                38.0,
                6.75
              ],
              [
                38.0,
                6.5
              ],
              [
                38.0,
                6.25
              ],
              [
                37.75,
                6.25
              ],
              [
                37.5,
                6.25
              ],
              [
                37.25,
                6.25
              ],
              [
                37.0,
                6.25
              ],
              [
                36.75,
                6.25
              ],
              [
                36.75,
                6.5
              ],
              [
                36.5,
                6.5
              ],
              [
                36.5,
                6.75
              ],
              [
                36.25,
                6.75
              ],
              [
                36.0,
                6.75
              ],
              [
                35.75,
                6.75
              ],
              [
                35.75,
                6.5
              ],
              [
                35.5,
                6.5
              ],
              [
                35.5,
                6.25
              ],
              [
                35.5,
                6.0
              ],
              [
                35.25,
                6.0
              ],
              [
                35.25,
                5.75
              ],
              [
                35.25,
                5.5
              ],
              [
                35.0,
                5.5
              ],
              [
                35.0,
                5.75
              ],
              [
                35.0,
                6.0
              ],
              [
                35.0,
                6.25
              ],
              [
                34.75,
                6.25
              ],
              [
                34.75,
                6.5
              ],
              [
                34.75,
                6.75
              ],
              [
                34.5,
                6.75
              ]
            ]
          ],
          [
            [
              [
                43.75,
                8.75
              ],
              [
                43.75,
                9.0
              ],
              [
                44.0,
                9.0
              ],
              [
                44.0,
                8.75
              ],
              [
                43.75,
                8.75
              ]
            ]
          ],
          [
            [
              [
                40.75,
                13.75
              ],
              [
                40.5,
                13.75
              ],
              [
                40.25,
                13.75
              ],
              [
                40.25,
                14.0
              ],
              [
                40.0,
                14.0
              ],
              [
                40.0,
                14.25
              ],
              [
                40.0,
                14.5
              ],
              [
                40.25,
                14.5
              ],
              [
                40.5,
                14.5
              ],
              [
                40.5,
                14.25
              ],
              [
                40.75,
                14.25
              ],
              [
                40.75,
                14.0
              ],
              [
                41.0,
                14.0
              ],
              [
                41.0,
                13.75
              ],
              [
                41.0,
                13.5
              ],
              [
                41.0,
                13.25
              ],
              [
                40.75,
                13.25
              ],
              [
                40.75,
                13.5
              ],
              [
                40.75,
                13.75
              ]
            ]
          ]
        ]
      },
      "properties": {
        "regime_id": 1,
        "regime_nam": "Western Unimodal",
        "season_typ": "Annual Wet Season (Feb/Mar to Oct/Nov)",
        "pixel_cnt": 427,
        "land_pct": 28.8,
        "desc": "Single prolonged wet season; peak Jul-Aug. Core domain: Gambella, Assosa, Jimma, Bahir Dar, Gondar, Bedele."
      }
    },
    {
      "type": "Feature",
      "geometry": {
        "type": "Polygon",
        "coordinates": [
          [
            [
              38.5,
              7.25
            ],
            [
              38.75,
              7.25
            ],
            [
              38.75,
              7.5
            ],
            [
              39.0,
              7.5
            ],
            [
              39.25,
              7.5
            ],
            [
              39.25,
              7.75
            ],
            [
              39.0,
              7.75
            ],
            [
              39.0,
              8.0
            ],
            [
              38.75,
              8.0
            ],
            [
              38.75,
              8.25
            ],
            [
              38.5,
              8.25
            ],
            [
              38.25,
              8.25
            ],
            [
              38.25,
              8.5
            ],
            [
              38.0,
              8.5
            ],
            [
              38.0,
              8.75
            ],
            [
              38.0,
              9.0
            ],
            [
              38.0,
              9.25
            ],
            [
              38.0,
              9.5
            ],
            [
              38.0,
              9.75
            ],
            [
              38.0,
              10.0
            ],
            [
              37.75,
              10.0
            ],
            [
              37.75,
              10.25
            ],
            [
              37.5,
              10.25
            ],
            [
              37.5,
              10.5
            ],
            [
              37.75,
              10.5
            ],
            [
              37.75,
              10.75
            ],
            [
              37.5,
              10.75
            ],
            [
              37.5,
              11.0
            ],
            [
              37.5,
              11.25
            ],
            [
              37.5,
              11.5
            ],
            [
              37.5,
              11.75
            ],
            [
              37.75,
              11.75
            ],
            [
              38.0,
              11.75
            ],
            [
              38.0,
              12.0
            ],
            [
              38.0,
              12.25
            ],
            [
              38.0,
              12.5
            ],
            [
              37.75,
              12.5
            ],
            [
              37.5,
              12.5
            ],
            [
              37.5,
              12.75
            ],
            [
              37.5,
              13.0
            ],
            [
              37.5,
              13.25
            ],
            [
              37.75,
              13.25
            ],
            [
              38.0,
              13.25
            ],
            [
              38.0,
              13.5
            ],
            [
              38.25,
              13.5
            ],
            [
              38.25,
              13.75
            ],
            [
              38.25,
              14.0
            ],
            [
              38.25,
              14.25
            ],
            [
              38.25,
              14.5
            ],
            [
              38.5,
              14.5
            ],
            [
              38.75,
              14.5
            ],
            [
              39.0,
              14.5
            ],
            [
              39.25,
              14.5
            ],
            [
              39.5,
              14.5
            ],
            [
              39.5,
              14.75
            ],
            [
              39.75,
              14.75
            ],
            [
              39.75,
              14.5
            ],
            [
              40.0,
              14.5
            ],
            [
              40.0,
              14.25
            ],
            [
              40.0,
              14.0
            ],
            [
              40.25,
              14.0
            ],
            [
              40.25,
              13.75
            ],
            [
              40.5,
              13.75
            ],
            [
              40.5,
              13.5
            ],
            [
              40.5,
              13.25
            ],
            [
              40.5,
              13.0
            ],
            [
              40.75,
              13.0
            ],
            [
              40.75,
              12.75
            ],
            [
              40.75,
              12.5
            ],
            [
              41.0,
              12.5
            ],
            [
              41.0,
              12.25
            ],
            [
              40.75,
              12.25
            ],
            [
              40.75,
              12.0
            ],
            [
              40.75,
              11.75
            ],
            [
              40.75,
              11.5
            ],
            [
              40.75,
              11.25
            ],
            [
              41.0,
              11.25
            ],
            [
              41.0,
              11.0
            ],
            [
              41.25,
              11.0
            ],
            [
              41.5,
              11.0
            ],
            [
              41.5,
              10.75
            ],
            [
              41.5,
              10.5
            ],
            [
              41.5,
              10.25
            ],
            [
              41.5,
              10.0
            ],
            [
              41.75,
              10.0
            ],
            [
              42.0,
              10.0
            ],
            [
              42.25,
              10.0
            ],
            [
              42.25,
              10.25
            ],
            [
              42.25,
              10.5
            ],
            [
              42.5,
              10.5
            ],
            [
              42.75,
              10.5
            ],
            [
              42.75,
              10.25
            ],
            [
              43.0,
              10.25
            ],
            [
              43.0,
              10.0
            ],
            [
              43.25,
              10.0
            ],
            [
              43.25,
              9.75
            ],
            [
              43.25,
              9.5
            ],
            [
              43.5,
              9.5
            ],
            [
              43.5,
              9.25
            ],
            [
              43.75,
              9.25
            ],
            [
              44.0,
              9.25
            ],
            [
              44.0,
              9.0
            ],
            [
              43.75,
              9.0
            ],
            [
              43.75,
              8.75
            ],
            [
              43.5,
              8.75
            ],
            [
              43.25,
              8.75
            ],
            [
              43.0,
              8.75
            ],
            [
              42.75,
              8.75
            ],
            [
              42.5,
              8.75
            ],
            [
              42.25,
              8.75
            ],
            [
              42.25,
              8.5
            ],
            [
              42.0,
              8.5
            ],
            [
              41.75,
              8.5
            ],
            [
              41.5,
              8.5
            ],
            [
              41.5,
              8.25
            ],
            [
              41.25,
              8.25
            ],
            [
              41.25,
              8.0
            ],
            [
              41.0,
              8.0
            ],
            [
              41.0,
              7.75
            ],
            [
              40.75,
              7.75
            ],
            [
              40.75,
              7.5
            ],
            [
              40.5,
              7.5
            ],
            [
              40.5,
              7.25
            ],
            [
              40.25,
              7.25
            ],
            [
              40.25,
              7.0
            ],
            [
              40.0,
              7.0
            ],
            [
              39.75,
              7.0
            ],
            [
              39.75,
              6.75
            ],
            [
              39.5,
              6.75
            ],
            [
              39.25,
              6.75
            ],
            [
              39.25,
              6.5
            ],
            [
              39.0,
              6.5
            ],
            [
              38.75,
              6.5
            ],
            [
              38.75,
              6.25
            ],
            [
              38.5,
              6.25
            ],
            [
              38.5,
              6.5
            ],
            [
              38.25,
              6.5
            ],
            [
              38.0,
              6.5
            ],
            [
              38.0,
              6.75
            ],
            [
              38.0,
              7.0
            ],
            [
              38.0,
              7.25
            ],
            [
              38.0,
              7.5
            ],
            [
              38.25,
              7.5
            ],
            [
              38.25,
              7.25
            ],
            [
              38.5,
              7.25
            ]
          ]
        ]
      },
      "properties": {
        "regime_id": 2,
        "regime_nam": "Bimodal Type 1 Highlands",
        "season_typ": "Belg (FMAM) & Kiremt (JJAS)",
        "pixel_cnt": 416,
        "land_pct": 28.0,
        "desc": "Central/Eastern Highlands. Early Belg rains, June pause, then major summer monsoon Kiremt."
      }
    },
    {
      "type": "Feature",
      "geometry": {
        "type": "Polygon",
        "coordinates": [
          [
            [
              36.25,
              4.5
            ],
            [
              36.0,
              4.5
            ],
            [
              36.0,
              4.75
            ],
            [
              35.75,
              4.75
            ],
            [
              35.75,
              5.0
            ],
            [
              35.75,
              5.25
            ],
            [
              35.75,
              5.5
            ],
            [
              35.5,
              5.5
            ],
            [
              35.5,
              5.25
            ],
            [
              35.25,
              5.25
            ],
            [
              35.25,
              5.5
            ],
            [
              35.25,
              5.75
            ],
            [
              35.25,
              6.0
            ],
            [
              35.5,
              6.0
            ],
            [
              35.5,
              6.25
            ],
            [
              35.5,
              6.5
            ],
            [
              35.75,
              6.5
            ],
            [
              35.75,
              6.75
            ],
            [
              36.0,
              6.75
            ],
            [
              36.25,
              6.75
            ],
            [
              36.5,
              6.75
            ],
            [
              36.5,
              6.5
            ],
            [
              36.75,
              6.5
            ],
            [
              36.75,
              6.25
            ],
            [
              37.0,
              6.25
            ],
            [
              37.25,
              6.25
            ],
            [
              37.5,
              6.25
            ],
            [
              37.75,
              6.25
            ],
            [
              38.0,
              6.25
            ],
            [
              38.0,
              6.5
            ],
            [
              38.25,
              6.5
            ],
            [
              38.5,
              6.5
            ],
            [
              38.5,
              6.25
            ],
            [
              38.75,
              6.25
            ],
            [
              38.75,
              6.5
            ],
            [
              39.0,
              6.5
            ],
            [
              39.25,
              6.5
            ],
            [
              39.25,
              6.75
            ],
            [
              39.5,
              6.75
            ],
            [
              39.75,
              6.75
            ],
            [
              39.75,
              7.0
            ],
            [
              40.0,
              7.0
            ],
            [
              40.25,
              7.0
            ],
            [
              40.25,
              7.25
            ],
            [
              40.5,
              7.25
            ],
            [
              40.5,
              7.5
            ],
            [
              40.75,
              7.5
            ],
            [
              40.75,
              7.75
            ],
            [
              41.0,
              7.75
            ],
            [
              41.0,
              8.0
            ],
            [
              41.25,
              8.0
            ],
            [
              41.25,
              8.25
            ],
            [
              41.5,
              8.25
            ],
            [
              41.5,
              8.5
            ],
            [
              41.75,
              8.5
            ],
            [
              42.0,
              8.5
            ],
            [
              42.25,
              8.5
            ],
            [
              42.25,
              8.75
            ],
            [
              42.5,
              8.75
            ],
            [
              42.75,
              8.75
            ],
            [
              43.0,
              8.75
            ],
            [
              43.25,
              8.75
            ],
            [
              43.5,
              8.75
            ],
            [
              43.75,
              8.75
            ],
            [
              44.0,
              8.75
            ],
            [
              44.0,
              9.0
            ],
            [
              44.25,
              9.0
            ],
            [
              44.5,
              9.0
            ],
            [
              44.5,
              8.75
            ],
            [
              44.75,
              8.75
            ],
            [
              45.0,
              8.75
            ],
            [
              45.25,
              8.75
            ],
            [
              45.25,
              8.5
            ],
            [
              45.5,
              8.5
            ],
            [
              45.75,
              8.5
            ],
            [
              46.0,
              8.5
            ],
            [
              46.0,
              8.25
            ],
            [
              46.25,
              8.25
            ],
            [
              46.5,
              8.25
            ],
            [
              46.75,
              8.25
            ],
            [
              46.75,
              8.0
            ],
            [
              47.0,
              8.0
            ],
            [
              47.25,
              8.0
            ],
            [
              47.5,
              8.0
            ],
            [
              47.75,
              8.0
            ],
            [
              47.75,
              7.75
            ],
            [
              47.5,
              7.75
            ],
            [
              47.5,
              7.5
            ],
            [
              47.25,
              7.5
            ],
            [
              47.25,
              7.25
            ],
            [
              47.0,
              7.25
            ],
            [
              47.0,
              7.0
            ],
            [
              46.75,
              7.0
            ],
            [
              46.75,
              6.75
            ],
            [
              46.5,
              6.75
            ],
            [
              46.5,
              6.5
            ],
            [
              46.25,
              6.5
            ],
            [
              46.25,
              6.25
            ],
            [
              46.0,
              6.25
            ],
            [
              46.0,
              6.0
            ],
            [
              45.75,
              6.0
            ],
            [
              45.75,
              5.75
            ],
            [
              45.5,
              5.75
            ],
            [
              45.5,
              5.5
            ],
            [
              45.5,
              5.25
            ],
            [
              45.25,
              5.25
            ],
            [
              45.25,
              5.0
            ],
            [
              45.0,
              5.0
            ],
            [
              44.75,
              5.0
            ],
            [
              44.5,
              5.0
            ],
            [
              44.25,
              5.0
            ],
            [
              44.0,
              5.0
            ],
            [
              43.75,
              5.0
            ],
            [
              43.75,
              4.75
            ],
            [
              43.5,
              4.75
            ],
            [
              43.25,
              4.75
            ],
            [
              43.0,
              4.75
            ],
            [
              43.0,
              4.5
            ],
            [
              43.0,
              4.25
            ],
            [
              42.75,
              4.25
            ],
            [
              42.5,
              4.25
            ],
            [
              42.25,
              4.25
            ],
            [
              42.0,
              4.25
            ],
            [
              42.0,
              4.0
            ],
            [
              41.75,
              4.0
            ],
            [
              41.5,
              4.0
            ],
            [
              41.25,
              4.0
            ],
            [
              41.0,
              4.0
            ],
            [
              41.0,
              4.25
            ],
            [
              40.75,
              4.25
            ],
            [
              40.5,
              4.25
            ],
            [
              40.5,
              4.0
            ],
            [
              40.25,
              4.0
            ],
            [
              40.0,
              4.0
            ],
            [
              40.0,
              3.75
            ],
            [
              39.75,
              3.75
            ],
            [
              39.75,
              3.5
            ],
            [
              39.5,
              3.5
            ],
            [
              39.25,
              3.5
            ],
            [
              39.0,
              3.5
            ],
            [
              38.75,
              3.5
            ],
            [
              38.5,
              3.5
            ],
            [
              38.25,
              3.5
            ],
            [
              38.0,
              3.5
            ],
            [
              38.0,
              3.75
            ],
            [
              37.75,
              3.75
            ],
            [
              37.75,
              4.0
            ],
            [
              37.5,
              4.0
            ],
            [
              37.5,
              4.25
            ],
            [
              37.25,
              4.25
            ],
            [
              37.0,
              4.25
            ],
            [
              37.0,
              4.5
            ],
            [
              36.75,
              4.5
            ],
            [
              36.5,
              4.5
            ],
            [
              36.25,
              4.5
            ]
          ]
        ]
      },
      "properties": {
        "regime_id": 3,
        "regime_nam": "Bimodal Type 2 Pastoral Lowlands",
        "season_typ": "Gu/Ganna (MAM) & Deyr/Hagaya (SON-OND)",
        "pixel_cnt": 578,
        "land_pct": 38.9,
        "desc": "Southern & Southeastern Lowlands (Somali, Borana, Guji). Equatorial biannual; dry summer (JJAS)."
      }
    },
    {
      "type": "Feature",
      "geometry": {
        "type": "Polygon",
        "coordinates": [
          [
            [
              40.75,
              11.5
            ],
            [
              40.75,
              11.75
            ],
            [
              40.75,
              12.0
            ],
            [
              40.75,
              12.25
            ],
            [
              41.0,
              12.25
            ],
            [
              41.0,
              12.5
            ],
            [
              40.75,
              12.5
            ],
            [
              40.75,
              12.75
            ],
            [
              40.75,
              13.0
            ],
            [
              40.5,
              13.0
            ],
            [
              40.5,
              13.25
            ],
            [
              40.5,
              13.5
            ],
            [
              40.5,
              13.75
            ],
            [
              40.75,
              13.75
            ],
            [
              40.75,
              13.5
            ],
            [
              40.75,
              13.25
            ],
            [
              41.0,
              13.25
            ],
            [
              41.0,
              13.5
            ],
            [
              41.0,
              13.75
            ],
            [
              41.25,
              13.75
            ],
            [
              41.25,
              13.5
            ],
            [
              41.5,
              13.5
            ],
            [
              41.5,
              13.25
            ],
            [
              41.75,
              13.25
            ],
            [
              41.75,
              13.0
            ],
            [
              42.0,
              13.0
            ],
            [
              42.0,
              12.75
            ],
            [
              42.25,
              12.75
            ],
            [
              42.25,
              12.5
            ],
            [
              42.25,
              12.25
            ],
            [
              42.25,
              12.0
            ],
            [
              42.0,
              12.0
            ],
            [
              42.0,
              11.75
            ],
            [
              41.75,
              11.75
            ],
            [
              41.75,
              11.5
            ],
            [
              41.75,
              11.25
            ],
            [
              41.75,
              11.0
            ],
            [
              42.0,
              11.0
            ],
            [
              42.25,
              11.0
            ],
            [
              42.5,
              11.0
            ],
            [
              42.75,
              11.0
            ],
            [
              42.75,
              10.75
            ],
            [
              42.75,
              10.5
            ],
            [
              42.5,
              10.5
            ],
            [
              42.25,
              10.5
            ],
            [
              42.25,
              10.25
            ],
            [
              42.25,
              10.0
            ],
            [
              42.0,
              10.0
            ],
            [
              41.75,
              10.0
            ],
            [
              41.5,
              10.0
            ],
            [
              41.5,
              10.25
            ],
            [
              41.5,
              10.5
            ],
            [
              41.5,
              10.75
            ],
            [
              41.5,
              11.0
            ],
            [
              41.25,
              11.0
            ],
            [
              41.0,
              11.0
            ],
            [
              41.0,
              11.25
            ],
            [
              40.75,
              11.25
            ],
            [
              40.75,
              11.5
            ]
          ]
        ]
      },
      "properties": {
        "regime_id": 0,
        "regime_nam": "Arid / Marginal",
        "season_typ": "Non-Seasonal Desert",
        "pixel_cnt": 1459,
        "land_pct": 98.2,
        "desc": "Danakil Depression and hyper-arid Afar lowlands. Insufficient seasonal rainfall for reliable onset/cessation."
      }
    }
  ]
}