{
  "type": "FeatureCollection",
  "crs": {
    "type": "name",
    "properties": {
      "name": "urn:ogc:def:crs:OGC:1.3:CRS84"
    }
  },
  "features": [
    {
      "type": "Feature",
      "geometry": {
        "type": "MultiPolygon",
        "coordinates": [
          [
            [
              [
                34.5,
                6.75
              ],
              [
                34.5,
                7.0
              ],
              [
                34.25,
                7.0
              ],
              [
                34.25,
                7.25
              ],
              [
                34.0,
                7.25
              ],
              [
                34.0,
                7.5
              ],
              [
                33.75,
                7.5
              ],
              [
                33.75,
                7.75
              ],
              [
                33.5,
                7.75
              ],
              [
                33.25,
                7.75
              ],
              [
                33.0,
                7.75
              ],
              [
                33.0,
                8.0
              ],
              [
                33.25,
                8.0
              ],
              [
                33.25,
                8.25
              ],
              [
                33.25,
                8.5
              ],
              [
                33.5,
                8.5
              ],
              [
                33.75,
                8.5
              ],
              [
                34.0,
                8.5
              ],
              [
                34.0,
                8.75
              ],
              [
                34.25,
                8.75
              ],
              [
                34.25,
                9.0
              ],
              [
                34.0,
                9.0
              ],
              [
                34.0,
                9.25
              ],
              [
                34.0,
                9.5
              ],
              [
                34.0,
                9.75
              ],
              [
                34.25,
                9.75
              ],
              [
                34.25,
                10.0
              ],
              [
                34.25,
                10.25
              ],
              [
                34.25,
                10.5
              ],
              [
                34.25,
                10.75
              ],
              [
                34.5,
                10.75
              ],
              [
                34.75,
                10.75
              ],
              [
                35.0,
                10.75
              ],
              [
                35.0,
                11.0
              ],
              [
                35.0,
                11.25
              ],
              [
                35.0,
                11.5
              ],
              [
                35.0,
                11.75
              ],
              [
                35.25,
                11.75
              ],
              [
                35.25,
                12.0
              ],
              [
                35.25,
                12.25
              ],
              [
                35.5,
                12.25
              ],
              [
                35.5,
                12.5
              ],
              [
                35.75,
                12.5
              ],
              [
                35.75,
                12.75
              ],
              [
                36.0,
                12.75
              ],
              [
                36.25,
                12.75
              ],
              [
                36.25,
                13.0
              ],
              [
                36.25,
                13.25
              ],
              [
                36.25,
                13.5
              ],
              [
                36.5,
                13.5
              ],
              [
                36.5,
                13.75
              ],
              [
                36.5,
                14.0
              ],
              [
                36.5,
                14.25
              ],
              [
                36.75,
                14.25
              ],
              [
                37.0,
                14.25
              ],
              [
                37.0,
                14.5
              ],
              [
                37.25,
                14.5
              ],
              [
                37.5,
                14.5
              ],
              [
                37.75,
                14.5
              ],
              [
                37.75,
                14.75
              ],
              [
                38.0,
                14.75
              ],
              [
                38.25,
                14.75
              ],
              [
                38.25,
                14.5
              ],
              [
                38.25,
                14.25
              ],
              [
                38.25,
                14.0
              ],
              [
                38.25,
                13.75
              ],
              [
                38.25,
                13.5
              ],
              [
                38.0,
                13.5
              ],
              [
                38.0,
                13.25
              ],
              [
                37.75,
                13.25
              ],
              [
                37.5,
                13.25
              ],
              [
                37.5,
                13.0
              ],
              [
                37.5,
                12.75
              ],
              [
                37.5,
                12.5
              ],
              [
                37.75,
                12.5
              ],
              [
                38.0,
                12.5
              ],
              [
                38.0,
                12.25
              ],
              [
                38.0,
                12.0
              ],
              [
                38.0,
                11.75
              ],
              [
                37.75,
                11.75
              ],
              [
                37.5,
                11.75
              ],
              [
                37.5,
                11.5
              ],
              [
                37.5,
                11.25
              ],
              [
                37.5,
                11.0
              ],
              [
                37.5,
                10.75
              ],
              [
                37.75,
                10.75
              ],
              [
                37.75,
                10.5
              ],
              [
                37.5,
                10.5
              ],
              [
                37.5,
                10.25
              ],
              [
                37.75,
                10.25
              ],
              [
                37.75,
                10.0
              ],
              [
                38.0,
                10.0
              ],
              [
                38.0,
                9.75
              ],
              [
                38.0,
                9.5
              ],
              [
                38.0,
                9.25
              ],
              [
                38.0,
                9.0
              ],
              [
                38.0,
                8.75
              ],
              [
                38.0,
                8.5
              ],
              [
                38.25,
                8.5
              ],
              [
                38.25,
                8.25
              ],
              [
                38.5,
                8.25
              ],
              [
                38.75,
                8.25
              ],
              [
                38.75,
                8.0
              ],
              [
                39.0,
                8.0
              ],
              [
                39.0,
                7.75
              ],
              [
                39.25,
                7.75
              ],
              [
                39.25,
                7.5
              ],
              [
                39.0,
                7.5
              ],
              [
                38.75,
                7.5
              ],
              [
                38.75,
                7.25
              ],
              [
                38.5,
                7.25
              ],
              [
                38.25,
                7.25
              ],
              [
                38.25,
                7.5
              ],
              [
                38.0,
                7.5
              ],
              [
                38.0,
                7.25
              ],
              [
                38.0,
                7.0
              ],
              [
                38.0,
                6.75
              ],
              [
                38.0,
                6.5
              ],
              [
                38.0,
                6.25
              ],
              [
                37.75,
                6.25
              ],
              [
                37.5,
                6.25
              ],
              [
                37.25,
                6.25
              ],
              [
                37.0,
                6.25
              ],
              [
                36.75,
                6.25
              ],
              [
                36.75,
                6.5
              ],
              [
                36.5,
                6.5
              ],
              [
                36.5,
                6.75
              ],
              [
                36.25,
                6.75
              ],
              [
                36.0,
                6.75
              ],
              [
                35.75,
                6.75
              ],
              [
                35.75,
                6.5
              ],
              [
                35.5,
                6.5
              ],
              [
                35.5,
                6.25
              ],
              [
                35.5,
                6.0
              ],
              [
                35.25,
                6.0
              ],
              [
                35.25,
                5.75
              ],
              [
                35.25,
                5.5
              ],
              [
                35.0,
                5.5
              ],
              [
                35.0,
                5.75
              ],
              [
                35.0,
                6.0
              ],
              [
                35.0,
                6.25
              ],
              [
                34.75,
                6.25
              ],
              [
                34.75,
                6.5
              ],
              [
                34.75,
                6.75
              ],
              [
                34.5,
                6.75
              ]
            ]
          ],
          [
            [
              [
                40.25,
                14.0
              ],
              [
                40.0,
                14.0
              ],
              [
                40.0,
                14.25
              ],
              [
                40.0,
                14.5
              ],
              [
                40.25,
                14.5
              ],
              [
                40.5,
                14.5
              ],
              [
                40.5,
                14.25
              ],
              [
                40.75,
                14.25
              ],
              [
                40.75,
                14.0
              ],
              [
                41.0,
                14.0
              ],
              [
                41.0,
                13.75
              ],
              [
                41.0,
                13.5
              ],
              [
                41.0,
                13.25
              ],
              [
                40.75,
                13.25
              ],
              [
                40.75,
                13.5
              ],
              [
                40.75,
                13.75
              ],
              [
                40.5,
                13.75
              ],
              [
                40.25,
                13.75
              ],
              [
                40.25,
                14.0
              ]
            ]
          ]
        ]
      },
      "properties": {
        "mask_name": "Western Ethiopia Annual Extended Wet Season",
        "target_reg": "Regime 1 Western",
        "window": "Mar-Nov",
        "pixel_cnt": 426,
        "land_pct": 28.7,
        "authority": "Dunning (2016) / EMI Climatology"
      }
    }
  ]
}