{
  "type": "FeatureCollection",
  "crs": {
    "type": "name",
    "properties": {
      "name": "urn:ogc:def:crs:OGC:1.3:CRS84"
    }
  },
  "features": [
    {
      "type": "Feature",
      "geometry": {
        "type": "Polygon",
        "coordinates": [
          [
            [
              36.25,
              4.5
            ],
            [
              36.0,
              4.5
            ],
            [
              36.0,
              4.75
            ],
            [
              35.75,
              4.75
            ],
            [
              35.75,
              5.0
            ],
            [
              35.75,
              5.25
            ],
            [
              35.75,
              5.5
            ],
            [
              35.5,
              5.5
            ],
            [
              35.5,
              5.25
            ],
            [
              35.25,
              5.25
            ],
            [
              35.25,
              5.5
            ],
            [
              35.25,
              5.75
            ],
            [
              35.25,
              6.0
            ],
            [
              35.5,
              6.0
            ],
            [
              35.5,
              6.25
            ],
            [
              35.5,
              6.5
            ],
            [
              35.75,
              6.5
            ],
            [
              35.75,
              6.75
            ],
            [
              36.0,
              6.75
            ],
            [
              36.25,
              6.75
            ],
            [
              36.5,
              6.75
            ],
            [
              36.5,
              6.5
            ],
            [
              36.75,
              6.5
            ],
            [
              36.75,
              6.25
            ],
            [
              37.0,
              6.25
            ],
            [
              37.25,
              6.25
            ],
            [
              37.5,
              6.25
            ],
            [
              37.75,
              6.25
            ],
            [
              38.0,
              6.25
            ],
            [
              38.0,
              6.5
            ],
            [
              38.25,
              6.5
            ],
            [
              38.5,
              6.5
            ],
            [
              38.5,
              6.25
            ],
            [
              38.75,
              6.25
            ],
            [
              38.75,
              6.5
            ],
            [
              39.0,
              6.5
            ],
            [
              39.25,
              6.5
            ],
            [
              39.25,
              6.75
            ],
            [
              39.5,
              6.75
            ],
            [
              39.75,
              6.75
            ],
            [
              39.75,
              7.0
            ],
            [
              40.0,
              7.0
            ],
            [
              40.25,
              7.0
            ],
            [
              40.25,
              7.25
            ],
            [
              40.5,
              7.25
            ],
            [
              40.5,
              7.5
            ],
            [
              40.75,
              7.5
            ],
            [
              40.75,
              7.75
            ],
            [
              41.0,
              7.75
            ],
            [
              41.0,
              8.0
            ],
            [
              41.25,
              8.0
            ],
            [
              41.25,
              8.25
            ],
            [
              41.5,
              8.25
            ],
            [
              41.5,
              8.5
            ],
            [
              41.75,
              8.5
            ],
            [
              42.0,
              8.5
            ],
            [
              42.25,
              8.5
            ],
            [
              42.25,
              8.75
            ],
            [
              42.5,
              8.75
            ],
            [
              42.75,
              8.75
            ],
            [
              43.0,
              8.75
            ],
            [
              43.25,
              8.75
            ],
            [
              43.5,
              8.75
            ],
            [
              43.75,
              8.75
            ],
            [
              44.0,
              8.75
            ],
            [
              44.0,
              9.0
            ],
            [
              44.25,
              9.0
            ],
            [
              44.5,
              9.0
            ],
            [
              44.5,
              8.75
            ],
            [
              44.75,
              8.75
            ],
            [
              45.0,
              8.75
            ],
            [
              45.25,
              8.75
            ],
            [
              45.25,
              8.5
            ],
            [
              45.5,
              8.5
            ],
            [
              45.75,
              8.5
            ],
            [
              46.0,
              8.5
            ],
            [
              46.0,
              8.25
            ],
            [
              46.25,
              8.25
            ],
            [
              46.5,
              8.25
            ],
            [
              46.75,
              8.25
            ],
            [
              46.75,
              8.0
            ],
            [
              47.0,
              8.0
            ],
            [
              47.25,
              8.0
            ],
            [
              47.5,
              8.0
            ],
            [
              47.75,
              8.0
            ],
            [
              47.75,
              7.75
            ],
            [
              47.5,
              7.75
            ],
            [
              47.5,
              7.5
            ],
            [
              47.25,
              7.5
            ],
            [
              47.25,
              7.25
            ],
            [
              47.0,
              7.25
            ],
            [
              47.0,
              7.0
            ],
            [
              46.75,
              7.0
            ],
            [
              46.75,
              6.75
            ],
            [
              46.5,
              6.75
            ],
            [
              46.5,
              6.5
            ],
            [
              46.25,
              6.5
            ],
            [
              46.25,
              6.25
            ],
            [
              46.0,
              6.25
            ],
            [
              46.0,
              6.0
            ],
            [
              45.75,
              6.0
            ],
            [
              45.75,
              5.75
            ],
            [
              45.5,
              5.75
            ],
            [
              45.5,
              5.5
            ],
            [
              45.5,
              5.25
            ],
            [
              45.25,
              5.25
            ],
            [
              45.25,
              5.0
            ],
            [
              45.0,
              5.0
            ],
            [
              44.75,
              5.0
            ],
            [
              44.5,
              5.0
            ],
            [
              44.25,
              5.0
            ],
            [
              44.0,
              5.0
            ],
            [
              43.75,
              5.0
            ],
            [
              43.75,
              4.75
            ],
            [
              43.5,
              4.75
            ],
            [
              43.25,
              4.75
            ],
            [
              43.0,
              4.75
            ],
            [
              43.0,
              4.5
            ],
            [
              43.0,
              4.25
            ],
            [
              42.75,
              4.25
            ],
            [
              42.5,
              4.25
            ],
            [
              42.25,
              4.25
            ],
            [
              42.0,
              4.25
            ],
            [
              42.0,
              4.0
            ],
            [
              41.75,
              4.0
            ],
            [
              41.5,
              4.0
            ],
            [
              41.25,
              4.0
            ],
            [
              41.0,
              4.0
            ],
            [
              41.0,
              4.25
            ],
            [
              40.75,
              4.25
            ],
            [
              40.5,
              4.25
            ],
            [
              40.5,
              4.0
            ],
            [
              40.25,
              4.0
            ],
            [
              40.0,
              4.0
            ],
            [
              40.0,
              3.75
            ],
            [
              39.75,
              3.75
            ],
            [
              39.75,
              3.5
            ],
            [
              39.5,
              3.5
            ],
            [
              39.25,
              3.5
            ],
            [
              39.0,
              3.5
            ],
            [
              38.75,
              3.5
            ],
            [
              38.5,
              3.5
            ],
            [
              38.25,
              3.5
            ],
            [
              38.0,
              3.5
            ],
            [
              38.0,
              3.75
            ],
            [
              37.75,
              3.75
            ],
            [
              37.75,
              4.0
            ],
            [
              37.5,
              4.0
            ],
            [
              37.5,
              4.25
            ],
            [
              37.25,
              4.25
            ],
            [
              37.0,
              4.25
            ],
            [
              37.0,
              4.5
            ],
            [
              36.75,
              4.5
            ],
            [
              36.5,
              4.5
            ],
            [
              36.25,
              4.5
            ]
          ]
        ]
      },
      "properties": {
        "mask_name": "Pastoral Lowlands Spring Rains (Gu/Ganna)",
        "target_reg": "Regime 3 Lowlands",
        "window": "Mar-May",
        "pixel_cnt": 578,
        "land_pct": 38.9,
        "authority": "Dunning (2016) / EMI Climatology"
      }
    }
  ]
}