{
"type": "FeatureCollection",
"name": "eth_admin0",
"crs": { "type": "name", "properties": { "name": "urn:ogc:def:crs:OGC:1.3:CRS84" } },
"features": [
{ "type": "Feature", "properties": { "name": "Ethiopia" }, "geometry": { "type": "Polygon", "coordinates": [ [ [ 35.277080000000183, 5.458050000000185 ], [ 35.2927, 5.487640000000113 ], [ 35.28999, 5.50778 ], [ 35.103880000000117, 5.632500000000107 ], [ 35.10541, 5.68833 ], [ 35.02833, 5.81417 ], [ 34.986380000000111, 5.87805 ], [ 34.975830000000144, 5.96472 ], [ 34.98782, 6.01394 ], [ 34.981380000000115, 6.06111 ], [ 34.969720000000109, 6.086530000000153 ], [ 34.922430000000134, 6.13229 ], [ 34.87055, 6.237500000000125 ], [ 34.8593, 6.267220000000123 ], [ 34.850000000000136, 6.366660000000138 ], [ 34.756990000000144, 6.613780000000133 ], [ 34.70472, 6.67778 ], [ 34.679160000000138, 6.7 ], [ 34.654720000000168, 6.716670000000136 ], [ 34.63208, 6.729030000000137 ], [ 34.60277, 6.73472 ], [ 34.55361, 6.73569 ], [ 34.52882, 6.74722 ], [ 34.48697, 6.87749 ], [ 34.4718, 6.914310000000171 ], [ 34.430950000000109, 6.935410000000161 ], [ 34.360970000000179, 6.959030000000155 ], [ 34.32875, 6.95875 ], [ 34.299570000000131, 6.964320000000157 ], [ 34.28055, 6.97583 ], [ 34.23569, 7.01972 ], [ 34.22361, 7.042500000000189 ], [ 34.19389, 7.09 ], [ 34.163330000000144, 7.17167000000012 ], [ 34.09916, 7.199720000000184 ], [ 34.02708, 7.24812 ], [ 34.03278, 7.30444 ], [ 34.027710000000127, 7.37868 ], [ 33.88555, 7.525420000000167 ], [ 33.71249, 7.658470000000136 ], [ 33.647220000000118, 7.685 ], [ 33.46444, 7.74403 ], [ 33.453941863000125, 7.744200262000163 ], [ 33.454654831000141, 7.74556846400003 ], [ 33.453878550000127, 7.744201289000159 ], [ 33.439160000000186, 7.744440000000111 ], [ 33.096660000000156, 7.781110000000183 ], [ 33.05222, 7.79069 ], [ 33.014970000000119, 7.846060000000136 ], [ 32.996830000000102, 7.88722 ], [ 32.9918, 7.92604 ], [ 33.03194, 7.99739 ], [ 33.12138, 8.10097 ], [ 33.162770000000194, 8.115 ], [ 33.185920000000181, 8.14029 ], [ 33.17805, 8.2225 ], [ 33.16583, 8.27833 ], [ 33.16083, 8.35653 ], [ 33.171250000000157, 8.399790000000166 ], [ 33.26354, 8.46153 ], [ 33.326730000000111, 8.45368 ], [ 33.380830000000117, 8.43792 ], [ 33.470449697000163, 8.45775444200018 ], [ 33.473272676000192, 8.45584073800012 ], [ 33.475632740000094, 8.456191290000163 ], [ 33.480993390000094, 8.460087950000172 ], [ 33.508610000000147, 8.466200000000129 ], [ 33.63437, 8.46715 ], [ 33.66999, 8.43708 ], [ 33.69048, 8.39548 ], [ 33.71527, 8.375070000000107 ], [ 33.77133, 8.36775 ], [ 33.81874, 8.41153 ], [ 33.852490000000103, 8.42583000000019 ], [ 33.88152, 8.430830000000185 ], [ 33.91528, 8.43055 ], [ 33.97076, 8.43757 ], [ 34.002220000000136, 8.46028 ], [ 34.070830000000115, 8.52333 ], [ 34.105550000000108, 8.55778 ], [ 34.12166, 8.579580000000135 ], [ 34.13499, 8.95528000000013 ], [ 34.094990000000166, 9.453890000000172 ], [ 34.08583, 9.55305 ], [ 34.14, 9.75805 ], [ 34.20722, 9.905 ], [ 34.230550000000164, 10.02764000000019 ], [ 34.32305, 10.11722 ], [ 34.34833, 10.238470000000177 ], [ 34.341940000000193, 10.28083 ], [ 34.28611, 10.55416 ], [ 34.35278, 10.63167 ], [ 34.439720000000136, 10.784440000000131 ], [ 34.59444, 10.88778 ], [ 34.67388, 10.83472 ], [ 34.800550000000101, 10.72333 ], [ 34.86062, 10.73201 ], [ 34.975270000000137, 10.864440000000116 ], [ 34.978610000000117, 10.91528 ], [ 34.933330000000126, 10.95666 ], [ 35.005550000000142, 11.17444 ], [ 35.0075, 11.19833 ], [ 34.97111, 11.231110000000115 ], [ 34.964160000000163, 11.25042000000019 ], [ 34.96708000000018, 11.27486000000016 ], [ 34.986380000000111, 11.318330000000117 ], [ 35.004440000000159, 11.34889 ], [ 35.01333000000011, 11.367780000000153 ], [ 35.08749, 11.53583 ], [ 35.0952, 11.57646 ], [ 35.091660000000161, 11.598890000000154 ], [ 35.0668, 11.646530000000155 ], [ 35.058330000000183, 11.730280000000107 ], [ 35.063190000000134, 11.75958 ], [ 35.083610000000192, 11.80555 ], [ 35.102360000000147, 11.834440000000143 ], [ 35.11625, 11.85083 ], [ 35.13444, 11.86389 ], [ 35.16833000000014, 11.87833 ], [ 35.20166, 11.88639 ], [ 35.231380000000115, 11.898190000000113 ], [ 35.253610000000151, 11.917500000000189 ], [ 35.26108444900018, 11.927687256000013 ], [ 35.267157127000075, 11.938258121999979 ], [ 35.283879998000032, 11.983330002000173 ], [ 35.383599981000032, 12.165549971000189 ], [ 35.647359978999987, 12.59152997100017 ], [ 35.686239992000083, 12.602219999000056 ], [ 35.700139980000131, 12.624999971000136 ], [ 35.701080000000104, 12.666119988999981 ], [ 35.964720000000113, 12.71556 ], [ 36.012630000000115, 12.72055 ], [ 36.03722, 12.715 ], [ 36.07229, 12.724100000000135 ], [ 36.0934, 12.706390000000113 ], [ 36.11194000100005, 12.694029999000179 ], [ 36.142539971000076, 12.714849979000121 ], [ 36.15916, 12.88139 ], [ 36.13534, 12.92541 ], [ 36.142080000000135, 12.952780000000189 ], [ 36.151110000000131, 12.971670000000131 ], [ 36.168889974000081, 12.989999974000114 ], [ 36.157360000000153, 13.03306 ], [ 36.2486, 13.368060000000185 ], [ 36.397499978000155, 13.567779972000153 ], [ 36.408750000000168, 13.595140000000129 ], [ 36.411380000000179, 13.61555 ], [ 36.40736, 13.63528 ], [ 36.409020000000112, 13.6575 ], [ 36.486940000000175, 13.83944 ], [ 36.44639, 13.95694 ], [ 36.539440000000127, 14.24611 ], [ 36.542820000000177, 14.262050000000102 ], [ 36.55273739800009, 14.278901204000135 ], [ 36.578056111000194, 14.286977615000012 ], [ 36.584223881000185, 14.283136653000042 ], [ 36.604151499000182, 14.290955693 ], [ 36.606907317000093, 14.293787971000086 ], [ 36.614275634000194, 14.292427712000062 ], [ 36.618611513000019, 14.294143781 ], [ 36.621338149000053, 14.306191468000065 ], [ 36.628806866000104, 14.307589914000118 ], [ 36.651243734000047, 14.304478085000142 ], [ 36.685778599000116, 14.295905838000067 ], [ 36.690929900000128, 14.296346255000174 ], [ 36.711830070000133, 14.306659119000074 ], [ 36.728406175000032, 14.309811245000162 ], [ 36.734313201000077, 14.315171143000043 ], [ 36.746483752000188, 14.317707394000024 ], [ 36.765351952000117, 14.315619172000083 ], [ 36.778221862, 14.31666133300007 ], [ 36.808194760000049, 14.31308435800014 ], [ 36.824891034000188, 14.313709344000188 ], [ 36.827010731000144, 14.308943249000095 ], [ 36.832208877000028, 14.306866767000031 ], [ 36.840662951000184, 14.308744923 ], [ 36.848570152999969, 14.316329269000164 ], [ 36.863263550000056, 14.317819457000155 ], [ 36.878160851000189, 14.310939713000096 ], [ 36.894594493000113, 14.310835603000157 ], [ 36.900273211000126, 14.304748327000084 ], [ 36.914811284000109, 14.299494663000075 ], [ 36.93258766800011, 14.295662753000101 ], [ 36.937651508000044, 14.291153405000045 ], [ 36.94372560100004, 14.289098053000146 ], [ 36.956201475000057, 14.290418574000057 ], [ 36.962585186000013, 14.289884170999983 ], [ 36.96923397400019, 14.287088146000031 ], [ 36.974434690000066, 14.280187292000164 ], [ 36.981434663000073, 14.2744910400001 ], [ 36.986416260000055, 14.263108672000158 ], [ 36.990331588000174, 14.259755383000083 ], [ 36.997099328000047, 14.2578665690001 ], [ 37.008097514000042, 14.249484421000034 ], [ 37.0175166840001, 14.250591909000036 ], [ 37.03275500400008, 14.258300144000032 ], [ 37.038024290000124, 14.264247622000084 ], [ 37.043557621000105, 14.266419265000081 ], [ 37.049772170000153, 14.266110784000034 ], [ 37.057030519000193, 14.262442364000094 ], [ 37.065142907000109, 14.261925494000138 ], [ 37.071535923000113, 14.266621539000084 ], [ 37.089297186000181, 14.267999369000052 ], [ 37.093755118000047, 14.271675081000069 ], [ 37.096043568000084, 14.282456509000042 ], [ 37.100725866000062, 14.285920963000024 ], [ 37.103384651000056, 14.29076810600003 ], [ 37.102768301000026, 14.306584276000024 ], [ 37.104660355000078, 14.32082052200002 ], [ 37.100448773000153, 14.326545695000107 ], [ 37.099554390000094, 14.33326798600001 ], [ 37.108398492, 14.356146833000025 ], [ 37.113468709000017, 14.361249503000181 ], [ 37.113848479000183, 14.367212601000119 ], [ 37.122103144999983, 14.37952716000018 ], [ 37.128844884000159, 14.39903181 ], [ 37.133841490000179, 14.405419887 ], [ 37.141480747000173, 14.406260937000127 ], [ 37.15693821800005, 14.415751273000069 ], [ 37.164167478000081, 14.417256166000129 ], [ 37.171123792000117, 14.413391119000153 ], [ 37.17969781000005, 14.414514492000137 ], [ 37.19349177099997, 14.420412871999986 ], [ 37.199926783000024, 14.424789799000052 ], [ 37.212001635000092, 14.436939019000022 ], [ 37.226911601999973, 14.440399415000172 ], [ 37.238331217000109, 14.432197718000054 ], [ 37.247851065000134, 14.429494461000104 ], [ 37.253251447000025, 14.430186314000082 ], [ 37.258068909000031, 14.434754719000125 ], [ 37.283008130000155, 14.438726292000013 ], [ 37.289900702000068, 14.442625035000106 ], [ 37.299271658000066, 14.444641592000096 ], [ 37.307909880000182, 14.442622822000033 ], [ 37.314256903000114, 14.428662026999973 ], [ 37.32750644000015, 14.422581629000149 ], [ 37.336695938, 14.411113682000121 ], [ 37.344031036000104, 14.409044708000181 ], [ 37.345318520000035, 14.41577678800013 ], [ 37.35036014100001, 14.412569644000143 ], [ 37.355340385000147, 14.416369277 ], [ 37.361081163000165, 14.413954896000178 ], [ 37.364705515000026, 14.41922332900009 ], [ 37.369741702000056, 14.419258170000035 ], [ 37.398193365000054, 14.461147530000119 ], [ 37.403338287000111, 14.471358707999968 ], [ 37.429745045000118, 14.480212523000091 ], [ 37.440141211000025, 14.477544028000182 ], [ 37.443125562000091, 14.470585996000182 ], [ 37.471128041000043, 14.468718920000072 ], [ 37.488951343, 14.473108391999972 ], [ 37.507498849000058, 14.461340656000118 ], [ 37.524771182000165, 14.45999540400004 ], [ 37.548789784000121, 14.446135214000037 ], [ 37.559220950000054, 14.452272250000135 ], [ 37.572531015999971, 14.455381370000168 ], [ 37.576667232000091, 14.46791554400005 ], [ 37.595363754, 14.477582397000049 ], [ 37.65716951700017, 14.494745531000149 ], [ 37.670743457000071, 14.504168423000124 ], [ 37.672304699000108, 14.521704643000191 ], [ 37.67885976499997, 14.527435376000142 ], [ 37.698010751000027, 14.562567286000103 ], [ 37.700629656000103, 14.578851859000054 ], [ 37.709873889000164, 14.588646501000085 ], [ 37.723673222000173, 14.623757455000145 ], [ 37.741534948000151, 14.642437537000148 ], [ 37.753012795000075, 14.642725318000032 ], [ 37.77355448000003, 14.630389106000052 ], [ 37.782741687000168, 14.653729195000039 ], [ 37.775219794000122, 14.678457434000165 ], [ 37.773573456000179, 14.698207052000157 ], [ 37.781859922000081, 14.734886032000077 ], [ 37.804759613999977, 14.768928063000089 ], [ 37.832622379000099, 14.805154923000089 ], [ 37.849453609000079, 14.812515420000068 ], [ 37.875660503, 14.799868305000189 ], [ 37.902128124000171, 14.81003461600011 ], [ 37.922798632000024, 14.826121637000085 ], [ 37.940296291000095, 14.845476907000148 ], [ 37.943705885000156, 14.841414523000083 ], [ 37.945332251000082, 14.835183630000131 ], [ 37.95101399400005, 14.838867070999981 ], [ 37.953313978000097, 14.837650178000104 ], [ 37.953682929000024, 14.832484320000106 ], [ 37.959186402000171, 14.832969202000072 ], [ 37.971047991000091, 14.83044908800008 ], [ 37.974855762000118, 14.81800497200004 ], [ 37.97446577400018, 14.801627098000097 ], [ 37.987922264000133, 14.807947037000133 ], [ 37.992283010000165, 14.792003606000037 ], [ 37.991996100000051, 14.779187186000058 ], [ 37.994189999000128, 14.773459063000132 ], [ 37.999636405999979, 14.775401390000184 ], [ 38.003647532000059, 14.771606534000057 ], [ 38.004776942000092, 14.766290349000144 ], [ 38.015824585000132, 14.765212359000088 ], [ 38.02053812500003, 14.760782508000148 ], [ 38.021470114000181, 14.75498067400008 ], [ 38.01741230500005, 14.742636144000073 ], [ 38.018264385, 14.736637359000156 ], [ 38.03006459, 14.727867818000107 ], [ 38.040369254000154, 14.716603013 ], [ 38.053489559000127, 14.710827755000025 ], [ 38.064630327000145, 14.711330790000147 ], [ 38.07786269800016, 14.707420233000164 ], [ 38.091544747000057, 14.706628799000043 ], [ 38.095370005000177, 14.701442338000163 ], [ 38.105562534000171, 14.697506350000083 ], [ 38.10915959099998, 14.690091432000145 ], [ 38.120149033000132, 14.683820718000163 ], [ 38.127568447000101, 14.68192467700004 ], [ 38.132082415000184, 14.678524118000155 ], [ 38.134443394000073, 14.672549592 ], [ 38.139266198000144, 14.667294295000147 ], [ 38.146118982000132, 14.668634908000115 ], [ 38.150304928000082, 14.674762049000037 ], [ 38.15621349200012, 14.676451550000081 ], [ 38.162001153000176, 14.675854921 ], [ 38.173834552000017, 14.679814968000017 ], [ 38.179999399000053, 14.676574656000128 ], [ 38.18356194, 14.679280341000094 ], [ 38.187405288000036, 14.689155056000118 ], [ 38.202687657000183, 14.685909069000047 ], [ 38.210027434000096, 14.686837317000084 ], [ 38.215032272000087, 14.68275521400011 ], [ 38.228240227000015, 14.68577429700008 ], [ 38.237052615000152, 14.683138794000058 ], [ 38.243060504000141, 14.677930577000154 ], [ 38.251615968000124, 14.675043686000151 ], [ 38.256207644000085, 14.669771173000072 ], [ 38.261083131000191, 14.667144 ], [ 38.264505937000024, 14.638769564000143 ], [ 38.269062622000035, 14.634375875000103 ], [ 38.266276755000035, 14.627811516000122 ], [ 38.264505869000061, 14.614130603000149 ], [ 38.271134495000126, 14.610534974000075 ], [ 38.286081003000106, 14.607506376000117 ], [ 38.291960703000086, 14.602391209000132 ], [ 38.293136492000087, 14.594806033000111 ], [ 38.307922249000171, 14.585116137000057 ], [ 38.310384630999977, 14.578732026000182 ], [ 38.315318192000063, 14.573471492000124 ], [ 38.313432239000065, 14.568131052000069 ], [ 38.315242314000045, 14.550672305000148 ], [ 38.329710044000194, 14.531527335000021 ], [ 38.33640297300019, 14.528856408000138 ], [ 38.340943884000126, 14.522012228000108 ], [ 38.339809379000087, 14.513749806000021 ], [ 38.343208163000156, 14.507703961000118 ], [ 38.349312561000033, 14.509538160999966 ], [ 38.355919825000115, 14.506738546000065 ], [ 38.356141639000157, 14.499258772000076 ], [ 38.362233507999974, 14.486766175000184 ], [ 38.36891703900011, 14.484397709000177 ], [ 38.373443123000129, 14.480230984000116 ], [ 38.388392859000191, 14.479635451000092 ], [ 38.39480763600011, 14.481472588000145 ], [ 38.398146100000133, 14.476507214000037 ], [ 38.398891298000137, 14.470138559000191 ], [ 38.401517640000179, 14.46495725900013 ], [ 38.420781839000085, 14.463747722000164 ], [ 38.432173958000078, 14.427998714000069 ], [ 38.438729429000034, 14.426772085000096 ], [ 38.442660481000075, 14.422215952000158 ], [ 38.442739063000147, 14.416140246000168 ], [ 38.44741137800014, 14.410416756000188 ], [ 38.456184172000178, 14.409444929000131 ], [ 38.472291368000072, 14.413054747000047 ], [ 38.477594430000124, 14.416579272000092 ], [ 38.483698459000038, 14.418195981000167 ], [ 38.498562379000134, 14.411938751999969 ], [ 38.506036510000115, 14.413252574000182 ], [ 38.515858538000089, 14.405079012000158 ], [ 38.52095747300018, 14.410864062000087 ], [ 38.537352056000145, 14.420139784000128 ], [ 38.54363851200003, 14.42252444200011 ], [ 38.549105916000144, 14.422264471000176 ], [ 38.554654030000165, 14.425692067000114 ], [ 38.561059244999967, 14.426037035000036 ], [ 38.572081835000176, 14.432958239000186 ], [ 38.578977212000041, 14.433635157000083 ], [ 38.594375083000159, 14.438576193000131 ], [ 38.608319130999973, 14.43863998900008 ], [ 38.615774358000181, 14.433529122000095 ], [ 38.631275002000166, 14.440539415000046 ], [ 38.639123981000068, 14.43948816 ], [ 38.646768576000113, 14.441177681999989 ], [ 38.654217810000091, 14.444993122000028 ], [ 38.661642753000081, 14.44547458500017 ], [ 38.664908947000129, 14.450417135 ], [ 38.675098240000068, 14.45299092099998 ], [ 38.687220089000164, 14.460192908000181 ], [ 38.702942838000183, 14.465288096000052 ], [ 38.715767069000151, 14.460991964000073 ], [ 38.730547686000136, 14.458896300000049 ], [ 38.750180316000069, 14.465081069000064 ], [ 38.758924384000068, 14.464626837000139 ], [ 38.774849816000028, 14.466887417000123 ], [ 38.794040337000069, 14.463219068000114 ], [ 38.81516246100017, 14.474335912000129 ], [ 38.816749173000176, 14.481893022000122 ], [ 38.824463237000032, 14.481968548000168 ], [ 38.835754656000177, 14.485819050999964 ], [ 38.836063582000122, 14.484715844000107 ], [ 38.841254491000029, 14.491039915000101 ], [ 38.848394168000027, 14.495687701000122 ], [ 38.864231418000031, 14.494046852000167 ], [ 38.904877260000035, 14.501192779000121 ], [ 38.920968892000133, 14.511310290000154 ], [ 38.937267095000095, 14.532087065000155 ], [ 38.949637450000182, 14.531139113000052 ], [ 38.954141951000111, 14.535995573000093 ], [ 38.967306254000164, 14.538468307000016 ], [ 38.974733216000061, 14.541596849000086 ], [ 38.980932692000181, 14.552697284999965 ], [ 38.993862263000153, 14.565589180000075 ], [ 39.001169546000028, 14.585778537000124 ], [ 39.009963744000061, 14.590275806000022 ], [ 39.012674033000053, 14.603448957000069 ], [ 39.008468608000157, 14.616238802000055 ], [ 39.02351901500009, 14.632369865000044 ], [ 39.028668514000117, 14.634466937000013 ], [ 39.041394463000131, 14.63163259900017 ], [ 39.048418222000123, 14.635490076000053 ], [ 39.055192894000072, 14.636187313000107 ], [ 39.075328858000091, 14.633416390000036 ], [ 39.080736947000162, 14.63651403300014 ], [ 39.08684172400018, 14.633338327000104 ], [ 39.097596364000083, 14.633373262000021 ], [ 39.104382304000012, 14.630032119000077 ], [ 39.113952852000182, 14.617623675000118 ], [ 39.124664419000169, 14.613430921000145 ], [ 39.157450433000179, 14.620278210000151 ], [ 39.177677578000043, 14.618530823000071 ], [ 39.200322892000031, 14.611037689 ], [ 39.208052417000147, 14.603312423000148 ], [ 39.215870387000052, 14.591470591000189 ], [ 39.220984714000167, 14.579569139000057 ], [ 39.221536713000091, 14.572458615000073 ], [ 39.226467183000011, 14.56821871 ], [ 39.233182164000084, 14.568162599000061 ], [ 39.23863151300003, 14.565882257000055 ], [ 39.238159937000091, 14.560682188000101 ], [ 39.240127139000151, 14.555666364000047 ], [ 39.238541807000047, 14.547646510000163 ], [ 39.232313937000072, 14.54031454800014 ], [ 39.231452883000088, 14.51916675800004 ], [ 39.227904380000041, 14.51164943100008 ], [ 39.216707959000075, 14.496072012000184 ], [ 39.208486129000164, 14.49305225300003 ], [ 39.214479966000056, 14.482848699000044 ], [ 39.219131501000049, 14.47818563900006 ], [ 39.221002548000058, 14.453800363000028 ], [ 39.224183212000128, 14.443325086000073 ], [ 39.231792122000172, 14.430761323000127 ], [ 39.239755007000099, 14.411598402999971 ], [ 39.246763843, 14.40533429300001 ], [ 39.249747945000024, 14.39226004600016 ], [ 39.260725094000122, 14.393100468000057 ], [ 39.275845252000067, 14.402154977000066 ], [ 39.290244816999973, 14.404734747000134 ], [ 39.292894280000098, 14.410583641000017 ], [ 39.300832483000079, 14.411389074000169 ], [ 39.301057489000073, 14.41822519100009 ], [ 39.297885374000089, 14.424202780000087 ], [ 39.297714055000029, 14.436182551000172 ], [ 39.314812946000188, 14.437557153 ], [ 39.319917365000038, 14.44193865699998 ], [ 39.323291592000032, 14.450034359000142 ], [ 39.317828947000066, 14.452841337000052 ], [ 39.322358639000015, 14.459039095000037 ], [ 39.316307415000097, 14.459840507000081 ], [ 39.314345168000045, 14.465759974000036 ], [ 39.313847994000071, 14.478881045000037 ], [ 39.329982269000027, 14.480435911000086 ], [ 39.32351797400014, 14.492404129000022 ], [ 39.324045667000178, 14.498269948000143 ], [ 39.340012122000076, 14.511309453000024 ], [ 39.353389794000122, 14.505012485000179 ], [ 39.364715667000098, 14.49626209000013 ], [ 39.37114900600011, 14.494614944999967 ], [ 39.369377376000045, 14.499794964000046 ], [ 39.364648120000084, 14.50582138700014 ], [ 39.364783739000018, 14.51183899800003 ], [ 39.368577188000131, 14.518689579000124 ], [ 39.367652725000085, 14.526647714000148 ], [ 39.364601430000164, 14.533988573000101 ], [ 39.368698579000124, 14.53831389700008 ], [ 39.383633925000083, 14.535796259000108 ], [ 39.398463254000035, 14.53820118200008 ], [ 39.41218552800018, 14.531004735000124 ], [ 39.428219429000137, 14.53066994500017 ], [ 39.429098903000067, 14.524353825000162 ], [ 39.435477033000041, 14.519270406000089 ], [ 39.453263403000165, 14.526868381000043 ], [ 39.452093179000144, 14.510938678000116 ], [ 39.457082475000163, 14.507242945000144 ], [ 39.461865075000105, 14.513045958000077 ], [ 39.469320279000158, 14.515609184000027 ], [ 39.467769229000112, 14.508399233000091 ], [ 39.471021360000123, 14.504413501000158 ], [ 39.472642061000045, 14.4982511 ], [ 39.485096532000171, 14.501425029000188 ], [ 39.493253132000177, 14.509462223000128 ], [ 39.500386525000067, 14.543799707000119 ], [ 39.494401290000155, 14.564362904 ], [ 39.49167953, 14.582474713000124 ], [ 39.477772397000138, 14.597611129000029 ], [ 39.477534216000095, 14.603629319000049 ], [ 39.490078848999985, 14.625035714000148 ], [ 39.486579559, 14.640238542000191 ], [ 39.488369231000149, 14.645272977000104 ], [ 39.497110921000115, 14.65434751000015 ], [ 39.50267493900003, 14.677010141000039 ], [ 39.509986414000025, 14.67178131300011 ], [ 39.515786444000128, 14.67706229800018 ], [ 39.53744321500011, 14.669518097000093 ], [ 39.575182287000189, 14.669890578000093 ], [ 39.591224960000034, 14.662146833000179 ], [ 39.605829393000192, 14.647109107000119 ], [ 39.622686479000151, 14.635943927000028 ], [ 39.628808599000081, 14.608764478000126 ], [ 39.637687754000126, 14.598433770000156 ], [ 39.657426306000161, 14.589822925000078 ], [ 39.666544511000097, 14.592152314000032 ], [ 39.673833291000108, 14.58819281500007 ], [ 39.680289726000069, 14.588753205000046 ], [ 39.696757070000103, 14.569013244000018 ], [ 39.699048775000108, 14.562009805000116 ], [ 39.709332679000113, 14.551368027000137 ], [ 39.71519684000009, 14.551658998000164 ], [ 39.728795543000047, 14.546790339000097 ], [ 39.750274881000166, 14.54521633000013 ], [ 39.766785667000079, 14.540761419000034 ], [ 39.768490767000117, 14.533188418000066 ], [ 39.774528760000123, 14.527145002999987 ], [ 39.785449228000061, 14.51108458300007 ], [ 39.791543556000136, 14.506339999000033 ], [ 39.792610100000104, 14.500192012000014 ], [ 39.801009677000081, 14.499225404000185 ], [ 39.80671807300007, 14.49337277800015 ], [ 39.813180874000068, 14.48237148600009 ], [ 39.819980726000097, 14.478950498000188 ], [ 39.825682792000066, 14.48014325500003 ], [ 39.831315141000061, 14.484855217000188 ], [ 39.84141007400018, 14.4794003720001 ], [ 39.846840967000048, 14.474487311000132 ], [ 39.856616114000133, 14.472026032000144 ], [ 39.861917960000085, 14.465819361000058 ], [ 39.872553453000137, 14.461897605000104 ], [ 39.879821830000139, 14.452104808000115 ], [ 39.890500242000087, 14.443572233000168 ], [ 39.895237203000079, 14.43585016600008 ], [ 39.911406325000144, 14.422928815000091 ], [ 39.923756024000113, 14.414994940999975 ], [ 39.938464456000133, 14.40874957699998 ], [ 39.949863675000131, 14.410645311000167 ], [ 39.957983982000087, 14.417890788000079 ], [ 39.971352190000061, 14.426328206000051 ], [ 39.971498845000042, 14.431584838000163 ], [ 39.98085004700016, 14.440779718000101 ], [ 39.984256322000192, 14.432340698000132 ], [ 40.010217905000161, 14.439631002000112 ], [ 40.055258402000163, 14.486900711000146 ], [ 40.075308558000131, 14.493950612000162 ], [ 40.089048632000129, 14.490250559000174 ], [ 40.139918990000126, 14.498050334000084 ], [ 40.22258942100018, 14.478630022000175 ], [ 40.26849959600014, 14.453259889000037 ], [ 40.330949855000142, 14.424009685000158 ], [ 40.38467004000006, 14.389749535000021 ], [ 40.444510286000025, 14.363459338000155 ], [ 40.545590627000081, 14.301409044000138 ], [ 40.650530943000092, 14.229388753000023 ], [ 40.671296529000131, 14.213192006000043 ], [ 40.667984655, 14.211366589000079 ], [ 40.671350136000058, 14.21315019400015 ], [ 40.836741396000036, 14.084148277000168 ], [ 41.015591746999974, 13.932477847000143 ], [ 41.077301857000123, 13.878547704000084 ], [ 41.168641977000107, 13.789427512000088 ], [ 41.215872051000133, 13.747537406999982 ], [ 41.250372088000177, 13.712717340000154 ], [ 41.290802078000127, 13.662267277000069 ], [ 41.313702060000082, 13.630287251000084 ], [ 41.378462142000103, 13.569927111000084 ], [ 41.439702252000075, 13.519496961000129 ], [ 41.531222351000167, 13.43313676300005 ], [ 41.57809238800013, 13.385726673000079 ], [ 41.611682396000106, 13.347506613000178 ], [ 41.737332528000138, 13.231186338000157 ], [ 41.786422535000156, 13.175326259000087 ], [ 41.878682616000162, 13.089606055000047 ], [ 41.930482604000133, 13.029245974000162 ], [ 41.972552609000161, 12.983165899000142 ], [ 41.99778252100009, 12.934855908000031 ], [ 42.010212516000138, 12.92071588500005 ], [ 42.042672376000041, 12.855275903000063 ], [ 42.050232358000073, 12.843125902000111 ], [ 42.095402359000104, 12.793495823000171 ], [ 42.096412319000194, 12.783445844000028 ], [ 42.113512314000104, 12.763985816 ], [ 42.135692340000105, 12.745865757000104 ], [ 42.195982301000072, 12.671935676000032 ], [ 42.218962275000194, 12.640435648 ], [ 42.242382275000182, 12.615565613000058 ], [ 42.28026218500014, 12.556435585000088 ], [ 42.314161328000182, 12.53616891900009 ], [ 42.350738865000153, 12.517582657000048 ], [ 42.39972, 12.469720000000166 ], [ 42.33944, 12.39694 ], [ 42.308330000000183, 12.308330000000126 ], [ 42.25556, 12.26333 ], [ 42.16889, 12.137220000000127 ], [ 42.12722, 12.090280000000121 ], [ 42.058610000000101, 11.97583 ], [ 41.94861, 11.816670000000158 ], [ 41.891390000000115, 11.77361000000019 ], [ 41.829020000000128, 11.740970000000118 ], [ 41.759860000000174, 11.507920000000183 ], [ 41.79375, 11.380970000000104 ], [ 41.811940000000163, 11.25792 ], [ 41.802910000000168, 11.098970000000122 ], [ 41.800550000000101, 11.03111 ], [ 41.78972, 11.00805 ], [ 41.80833, 10.98528 ], [ 41.83722, 10.973050000000114 ], [ 41.88194, 10.960830000000158 ], [ 41.94028, 10.95 ], [ 41.991940000000113, 10.94222 ], [ 42.01972, 10.944720000000189 ], [ 42.08034, 10.97743000000014 ], [ 42.12555, 10.999440000000163 ], [ 42.171660000000145, 11.00028 ], [ 42.30055, 11.011390000000176 ], [ 42.35889, 11.01916 ], [ 42.50111, 11.06361 ], [ 42.608240000000194, 11.09158 ], [ 42.64041, 11.09708 ], [ 42.748190000000193, 11.07792000000012 ], [ 42.75979000000018, 11.059100000000115 ], [ 42.769300000000158, 11.02319 ], [ 42.7922200000001, 10.99778 ], [ 42.81097, 10.988330000000133 ], [ 42.89097, 10.98208000000011 ], [ 42.944090000000131, 11.00244 ], [ 42.9175, 10.95528000000013 ], [ 42.83861, 10.87389 ], [ 42.764160000000118, 10.78042 ], [ 42.66479, 10.632910000000152 ], [ 42.68111000000016, 10.582780000000184 ], [ 42.709440000000143, 10.536110000000122 ], [ 42.722220000000107, 10.51792 ], [ 42.74666, 10.495690000000138 ], [ 42.786110000000122, 10.455550000000187 ], [ 42.79708, 10.42278 ], [ 42.80333, 10.38055 ], [ 42.80611, 10.35 ], [ 42.816940000000159, 10.313890000000129 ], [ 42.85069, 10.219440000000191 ], [ 42.86416, 10.20055 ], [ 42.89097, 10.17208 ], [ 42.922780000000103, 10.147780000000125 ], [ 42.98055, 10.117640000000165 ], [ 43.01305, 10.081110000000137 ], [ 43.034720000000164, 10.025 ], [ 43.04277, 9.99306 ], [ 43.05166, 9.96819 ], [ 43.06305, 9.94875 ], [ 43.0843, 9.92486 ], [ 43.110280000000159, 9.908890000000156 ], [ 43.147840000000144, 9.902780000000178 ], [ 43.18041, 9.902780000000178 ], [ 43.20409, 9.892290000000173 ], [ 43.22486, 9.86319 ], [ 43.26055, 9.68472 ], [ 43.275280000000123, 9.64556 ], [ 43.28333, 9.634720000000186 ], [ 43.328470000000152, 9.61958 ], [ 43.386660000000177, 9.55694 ], [ 43.42777, 9.485280000000159 ], [ 43.42514, 9.460830000000101 ], [ 43.425830000000133, 9.43458 ], [ 43.44166, 9.41764 ], [ 43.55527, 9.348470000000134 ], [ 43.583060000000103, 9.33611 ], [ 43.627220000000136, 9.35444 ], [ 44.010550000000137, 9.007220000000132 ], [ 44.697125902000153, 8.779709554000078 ], [ 45.504358619000129, 8.507762079999964 ], [ 45.935566371000107, 8.365377519999981 ], [ 47.011940000000152, 8.00111 ], [ 47.98824, 8.00411 ], [ 47.98722, 8.00111 ], [ 47.904050000000154, 7.92046 ], [ 47.55555, 7.59222 ], [ 46.991390000000138, 7.056940000000168 ], [ 46.56139, 6.61944 ], [ 45.955830000000105, 5.999170000000106 ], [ 45.00784, 4.96257 ], [ 44.950830000000167, 4.9025 ], [ 43.981940000000122, 4.96305 ], [ 43.922220000000152, 4.93444 ], [ 43.85583, 4.91389 ], [ 43.823424633000116, 4.909017784000184 ], [ 43.79863192, 4.86921770500004 ], [ 43.539719044000151, 4.789742177999983 ], [ 43.51273194200013, 4.82118015500015 ], [ 43.508545760000118, 4.829276613000047 ], [ 43.321660000000122, 4.74861 ], [ 43.1936, 4.68778 ], [ 43.158190000000104, 4.66639 ], [ 42.98569, 4.52542 ], [ 42.96888, 4.50431 ], [ 42.95722, 4.48111 ], [ 42.94652, 4.44611 ], [ 42.93361, 4.388750000000186 ], [ 42.91999, 4.364030000000128 ], [ 42.876660000000129, 4.31833 ], [ 42.85569, 4.30472 ], [ 42.831670000000145, 4.29528 ], [ 42.76861, 4.278330000000153 ], [ 42.74083000000013, 4.272780000000125 ], [ 42.62229, 4.260420000000124 ], [ 42.563789384000131, 4.246906928999977 ], [ 42.566458657000055, 4.244940942000142 ], [ 42.585087331000068, 4.214725171 ], [ 42.554531097000108, 4.206250191000095 ], [ 42.527348192000147, 4.203004767000152 ], [ 42.47552108800005, 4.2027311330001 ], [ 42.37097930900012, 4.189451217000169 ], [ 42.266151204000096, 4.182680943000037 ], [ 42.193443203000129, 4.178970202000073 ], [ 42.087669373000097, 4.179365158000053 ], [ 42.069023132000154, 4.168312073000095 ], [ 42.061088562, 4.161539078000033 ], [ 42.008708954000099, 4.101514816000133 ], [ 42.000000000000171, 4.093367100000137 ], [ 41.979049683000028, 4.095186233999982 ], [ 41.974220275999983, 4.080558777000022 ], [ 41.972679138000046, 4.079374790000031 ], [ 41.966911316000107, 4.080088138000065 ], [ 41.946220398000037, 4.055664063000108 ], [ 41.945991516000106, 4.044589996000184 ], [ 41.948955536000028, 4.027874947000157 ], [ 41.943458557000042, 4.016658783000082 ], [ 41.926399231, 4.002608776000102 ], [ 41.921424866000109, 3.994117021000136 ], [ 41.913089752000019, 3.990753889000018 ], [ 41.906898499000192, 3.978008032000162 ], [ 41.899078369000051, 3.975493908000146 ], [ 41.893829346000189, 3.978760004000037 ], [ 41.890090942000143, 3.978439092000144 ], [ 41.878150940000012, 3.96776795400001 ], [ 41.863864897999974, 3.963756084000067 ], [ 41.852069855000082, 3.950186968000025 ], [ 41.845451355000137, 3.950052023000126 ], [ 41.840557099000193, 3.955019951000168 ], [ 41.833488464000027, 3.945880889000023 ], [ 41.829360962000067, 3.94681406 ], [ 41.824310303000061, 3.944529056000135 ], [ 41.820648193000125, 3.94615006500004 ], [ 41.819969177000075, 3.948223114000086 ], [ 41.822509766000053, 3.953737021000052 ], [ 41.820682526000041, 3.955812931000025 ], [ 41.805778503000113, 3.957468033 ], [ 41.802108765000071, 3.955409050000128 ], [ 41.798213958000133, 3.956800938000185 ], [ 41.794788361000087, 3.96026206 ], [ 41.792980194000165, 3.969010114000127 ], [ 41.794139862000179, 3.975447892999966 ], [ 41.79254913300008, 3.979363918000104 ], [ 41.787269592000143, 3.977078914 ], [ 41.784290314000032, 3.977318049000189 ], [ 41.782234192000089, 3.979393959000163 ], [ 41.778087616000164, 3.973886013000083 ], [ 41.772579193000126, 3.972290993000058 ], [ 41.754024506000121, 3.97671794900009 ], [ 41.755420685000104, 3.984766006000143 ], [ 41.751525879000098, 3.985466957000142 ], [ 41.746932983000193, 3.983409881999989 ], [ 41.744190216, 3.985949039000047 ], [ 41.740749359000176, 3.98457908600011 ], [ 41.735710144000052, 3.986893892000126 ], [ 41.734119415000123, 3.991499901000111 ], [ 41.730205536000028, 3.986680031000105 ], [ 41.72356033300008, 3.987159967000025 ], [ 41.720588685000052, 3.992460012000095 ], [ 41.71369171200007, 3.983278036000115 ], [ 41.692581177000136, 3.978048086000115 ], [ 41.687511444000165, 3.969779968000068 ], [ 41.684070587000122, 3.970710039000039 ], [ 41.680629730000078, 3.969340086000102 ], [ 41.674411774000191, 3.959924936 ], [ 41.663879394000048, 3.965707064000071 ], [ 41.655166625999982, 3.965502024000159 ], [ 41.63159942600015, 3.982362031999969 ], [ 41.627700806000121, 3.983294010000179 ], [ 41.617820740000127, 3.973889113000155 ], [ 41.608184814000083, 3.972995997000169 ], [ 41.602230072000168, 3.974852085000066 ], [ 41.593273163000049, 3.970046043000139 ], [ 41.57630920400004, 3.970782996000082 ], [ 41.56689834600013, 3.966666937000127 ], [ 41.560260772000049, 3.97082710300009 ], [ 41.550659179000036, 3.981666088000111 ], [ 41.545158386000139, 3.982140064000077 ], [ 41.524032593000186, 3.971153975000163 ], [ 41.518268585000044, 3.959666967999965 ], [ 41.509769440000184, 3.954627991000052 ], [ 41.505191803000059, 3.954870939000102 ], [ 41.506809235000105, 3.961997986000085 ], [ 41.505668640000124, 3.96476197200019 ], [ 41.499710082999968, 3.963627100000053 ], [ 41.489379882000151, 3.957902908000051 ], [ 41.484329223000145, 3.958606958000189 ], [ 41.482040406000181, 3.957462073000045 ], [ 41.479732513000101, 3.95217704800001 ], [ 41.472858429000155, 3.955185891000042 ], [ 41.468269348000149, 3.953126907000183 ], [ 41.460254669, 3.956598997000071 ], [ 41.445339203000117, 3.953646899000034 ], [ 41.437091827000188, 3.95481896400014 ], [ 41.435466766000104, 3.947460890000059 ], [ 41.430187226000101, 3.944943905000116 ], [ 41.426750183000024, 3.945413113000029 ], [ 41.421714783000141, 3.949336052000149 ], [ 41.419189453000058, 3.94796299900014 ], [ 41.413688660000162, 3.948896885000124 ], [ 41.405448913000043, 3.953289032000043 ], [ 41.394695282000157, 3.962287903 ], [ 41.391254425000113, 3.962757110000041 ], [ 41.378616333000025, 3.951745987000152 ], [ 41.373569488000157, 3.95152902600006 ], [ 41.365783691000161, 3.954308987000104 ], [ 41.359603882000158, 3.958925009000154 ], [ 41.359382630000141, 3.96099591300009 ], [ 41.354564667000034, 3.960318089000111 ], [ 41.348350525000114, 3.950901031000058 ], [ 41.338939666000101, 3.946552992000079 ], [ 41.329750061000141, 3.939213037000059 ], [ 41.32630920500003, 3.938761950000128 ], [ 41.320133209000062, 3.943837881000093 ], [ 41.314933777000078, 3.944274903000178 ], [ 41.309829712000123, 3.947866916000123 ], [ 41.281738281000116, 3.948544979000133 ], [ 41.278068543000018, 3.949794054000051 ], [ 41.27577590900006, 3.955415011000127 ], [ 41.252189636000139, 3.954701901000135 ], [ 41.235301971000183, 3.958884954000098 ], [ 41.23011016900017, 3.956034899000088 ], [ 41.22707748400012, 3.949891091000154 ], [ 41.214550019, 3.953505993000135 ], [ 41.203208924000194, 3.947947979000162 ], [ 41.202751160000162, 3.938919068000132 ], [ 41.200981140000067, 3.93810606 ], [ 41.185871124000073, 3.941414118000182 ], [ 41.181571960000156, 3.939517975000058 ], [ 41.169265747000054, 3.942579985000066 ], [ 41.162860871000191, 3.951335907000157 ], [ 41.132629395000095, 3.966588021 ], [ 41.135620117000087, 3.971411944000067 ], [ 41.133338928000114, 3.974178076000157 ], [ 41.124855042000149, 3.97419595700012 ], [ 41.122581482000157, 3.982482910000044 ], [ 41.118003845000032, 3.987095117000024 ], [ 41.111816406000116, 3.987567902000137 ], [ 41.105388641000047, 3.985281945000111 ], [ 41.104019165000068, 3.989195108000104 ], [ 41.098529816000166, 3.995188952000092 ], [ 41.091869354000096, 4.013317108000081 ], [ 41.072650910000164, 4.022595882000076 ], [ 41.057388306000121, 4.047733784000059 ], [ 41.044361115000072, 4.058828831000142 ], [ 41.040710449000187, 4.064825058 ], [ 41.035228729000096, 4.070367813000075 ], [ 41.026065826000035, 4.07086420100012 ], [ 41.023109436000027, 4.076626777000115 ], [ 41.009860992000029, 4.089333058000136 ], [ 41.001422882000156, 4.10270977100015 ], [ 40.99341964700011, 4.107801915000096 ], [ 40.982192994000116, 4.110606192999967 ], [ 40.972156525000059, 4.125369072000126 ], [ 40.965080261000082, 4.132068157000106 ], [ 40.947910308000075, 4.140876769999977 ], [ 40.929805756000064, 4.144166947000031 ], [ 40.913780212000177, 4.151128769000138 ], [ 40.906448364000141, 4.15253686900013 ], [ 40.90415954600013, 4.154615879000175 ], [ 40.898490905000187, 4.170742989000132 ], [ 40.883205414000088, 4.192656994000117 ], [ 40.881401062, 4.198857784000154 ], [ 40.884010315000182, 4.206934929000113 ], [ 40.882381440000131, 4.212838173000023 ], [ 40.873218537000071, 4.220889092000107 ], [ 40.855766297000059, 4.226706981 ], [ 40.844100952000076, 4.246257782000043 ], [ 40.830688477000081, 4.248429775000034 ], [ 40.813842774000079, 4.255150794999963 ], [ 40.784641266000108, 4.273006916000099 ], [ 40.778388977000191, 4.280996800000025 ], [ 40.773384137000164, 4.282452356000022 ], [ 40.67222, 4.228610000000174 ], [ 40.398890000000165, 4.12306 ], [ 40.38861, 4.09889 ], [ 40.1825, 4.0225 ], [ 40.0, 3.928580000000181 ], [ 39.86666, 3.86944 ], [ 39.782780000000173, 3.67833000000013 ], [ 39.594990000000166, 3.500830000000121 ], [ 39.560270000000116, 3.40667000000019 ], [ 39.519020000000182, 3.409310000000119 ], [ 39.50208, 3.422640000000115 ], [ 39.49958, 3.450140000000147 ], [ 39.450830000000167, 3.4625 ], [ 39.42249, 3.46 ], [ 39.331380000000138, 3.469170000000133 ], [ 39.32864, 3.49965 ], [ 39.295, 3.475280000000112 ], [ 39.248890000000188, 3.471390000000156 ], [ 39.19694, 3.478610000000174 ], [ 39.084720000000118, 3.534440000000131 ], [ 38.913610000000176, 3.513890000000117 ], [ 38.729440000000181, 3.56722 ], [ 38.621940000000166, 3.601670000000126 ], [ 38.51694, 3.62694 ], [ 38.448050000000194, 3.599440000000129 ], [ 38.32388, 3.60889 ], [ 38.121110000000158, 3.61167 ], [ 38.056110000000103, 3.651940000000138 ], [ 38.03361, 3.698060000000112 ], [ 37.99805, 3.728610000000117 ], [ 37.280550000000176, 4.19444 ], [ 37.13027000000011, 4.28639 ], [ 37.099160000000154, 4.33167 ], [ 37.039720000000102, 4.375550000000146 ], [ 36.88777, 4.43472 ], [ 36.714253964000136, 4.433850543000176 ], [ 36.6475, 4.44667 ], [ 36.27166, 4.43917 ], [ 36.211170000000152, 4.448 ], [ 36.045300000000111, 4.44708 ], [ 35.95111, 4.521110000000135 ], [ 35.947700000000168, 4.62933 ], [ 35.92472, 4.64028 ], [ 35.774440000000141, 4.79861000000011 ], [ 35.779990000000168, 5.08264 ], [ 35.80277, 5.10528 ], [ 35.82361, 5.13667 ], [ 35.83069, 5.168400000000133 ], [ 35.805130000000133, 5.206810000000132 ], [ 35.796240000000182, 5.23514 ], [ 35.79874, 5.265550000000189 ], [ 35.82166, 5.32861 ], [ 35.796940000000177, 5.33111 ], [ 35.774990000000173, 5.337220000000173 ], [ 35.75375, 5.34694 ], [ 35.726240000000132, 5.364440000000116 ], [ 35.527920000000165, 5.42681000000016 ], [ 35.50471, 5.43139 ], [ 35.443710000000181, 5.425520000000176 ], [ 35.41909, 5.398400000000152 ], [ 35.352840000000185, 5.35069 ], [ 35.32625000000013, 5.35708000000011 ], [ 35.30305, 5.377360000000124 ], [ 35.27041, 5.438330000000121 ], [ 35.277080000000183, 5.458050000000185 ] ] ] } }
]
}
